CCSDS_OMM_VERS = 2.0
CREATION_DATE  = 
ORIGINATOR     = 

OBJECT_NAME    = GLOBAL-34
OBJECT_ID      = 2026-043A
CENTER_NAME    = EARTH
REF_FRAME      = TEME
TIME_SYSTEM    = UTC
MEAN_ELEMENT_THEORY = SGP/SGP4

EPOCH          = 2026-03-09T11:23:30.999840
MEAN_MOTION    = 15.31488019
ECCENTRICITY   = .00068849
INCLINATION    = 42.0215
RA_OF_ASC_NODE = 76.7399
ARG_OF_PERICENTER = 289.2632
MEAN_ANOMALY   = 70.7460

EPHEMERIS_TYPE = 0
CLASSIFICATION_TYPE = U
NORAD_CAT_ID   = 68098
ELEMENT_SET_NO = 999
REV_AT_EPOCH   = 53
BSTAR          = .45822046E-3
MEAN_MOTION_DOT = .14018E-3
MEAN_MOTION_DDOT = 0

CCSDS_OMM_VERS = 2.0
CREATION_DATE  = 
ORIGINATOR     = 

OBJECT_NAME    = ELECTRON R/B
OBJECT_ID      = 2026-043B
CENTER_NAME    = EARTH
REF_FRAME      = TEME
TIME_SYSTEM    = UTC
MEAN_ELEMENT_THEORY = SGP/SGP4

EPOCH          = 2026-03-09T08:29:55.465152
MEAN_MOTION    = 15.95321187
ECCENTRICITY   = .01704377
INCLINATION    = 42.0136
RA_OF_ASC_NODE = 75.7261
ARG_OF_PERICENTER = 290.6957
MEAN_ANOMALY   = 67.5707

EPHEMERIS_TYPE = 0
CLASSIFICATION_TYPE = U
NORAD_CAT_ID   = 68099
ELEMENT_SET_NO = 999
REV_AT_EPOCH   = 53
BSTAR          = .13809464E-2
MEAN_MOTION_DOT = .2880891E-1
MEAN_MOTION_DDOT = .7631601E-5

CCSDS_OMM_VERS = 2.0
CREATION_DATE  = 
ORIGINATOR     = 

OBJECT_NAME    = ELECTRON KICK STAGE R/B
OBJECT_ID      = 2026-043C
CENTER_NAME    = EARTH
REF_FRAME      = TEME
TIME_SYSTEM    = UTC
MEAN_ELEMENT_THEORY = SGP/SGP4

EPOCH          = 2026-03-09T11:32:12.354720
MEAN_MOTION    = 15.96396295
ECCENTRICITY   = .015067
INCLINATION    = 42.1196
RA_OF_ASC_NODE = 75.0711
ARG_OF_PERICENTER = 47.4339
MEAN_ANOMALY   = 313.9128

EPHEMERIS_TYPE = 0
CLASSIFICATION_TYPE = U
NORAD_CAT_ID   = 68100
ELEMENT_SET_NO = 999
REV_AT_EPOCH   = 54
BSTAR          = .19440022E-2
MEAN_MOTION_DOT = .3047399E-1
MEAN_MOTION_DDOT = .8134171E-5

